[{"OBJECT_NAME":"STARLINK-33630","OBJECT_ID":"2025-070T","EPOCH":"2026-03-09T12:47:13.243488","MEAN_MOTION":15.27568423,"ECCENTRICITY":0.00014983,"INCLINATION":42.9982,"RA_OF_ASC_NODE":257.0985,"ARG_OF_PERICENTER":254.5646,"MEAN_ANOMALY":105.504,"EPHEMERIS_TYPE":0,"CLASSIFICATION_TYPE":"U","NORAD_CAT_ID":63477,"ELEMENT_SET_NO":999,"REV_AT_EPOCH":5299,"BSTAR":0.001462945,"MEAN_MOTION_DOT":0.00040201,"MEAN_MOTION_DDOT":0},{"OBJECT_NAME":"CZ-4C R\/B","OBJECT_ID":"2023-123B","EPOCH":"2026-03-09T21:44:40.426944","MEAN_MOTION":15.36684191,"ECCENTRICITY":0.00627803,"INCLINATION":97.9677,"RA_OF_ASC_NODE":50.672,"ARG_OF_PERICENTER":67.0775,"MEAN_ANOMALY":293.7077,"EPHEMERIS_TYPE":0,"CLASSIFICATION_TYPE":"U","NORAD_CAT_ID":57655,"ELEMENT_SET_NO":999,"REV_AT_EPOCH":14181,"BSTAR":0.00052203987,"MEAN_MOTION_DOT":0.00019917,"MEAN_MOTION_DDOT":0}]
